[{"OBJECT_NAME":"STARLINK-30094","OBJECT_ID":"2023-056V","EPOCH":"2026-03-09T22:00:01.999584","MEAN_MOTION":15.26730581,"ECCENTRICITY":0.00016161,"INCLINATION":42.9993,"RA_OF_ASC_NODE":207.0517,"ARG_OF_PERICENTER":283.1373,"MEAN_ANOMALY":319.4539,"EPHEMERIS_TYPE":0,"CLASSIFICATION_TYPE":"U","NORAD_CAT_ID":56305,"ELEMENT_SET_NO":999,"REV_AT_EPOCH":578,"BSTAR":0.001531911,"MEAN_MOTION_DOT":0.00041049,"MEAN_MOTION_DDOT":0},{"OBJECT_NAME":"POEM","OBJECT_ID":"2022-072E","EPOCH":"2026-03-08T08:06:01.299456","MEAN_MOTION":15.22764653,"ECCENTRICITY":0.00236837,"INCLINATION":9.9515,"RA_OF_ASC_NODE":116.6548,"ARG_OF_PERICENTER":142.2805,"MEAN_ANOMALY":217.9074,"EPHEMERIS_TYPE":0,"CLASSIFICATION_TYPE":"U","NORAD_CAT_ID":52939,"ELEMENT_SET_NO":999,"REV_AT_EPOCH":20410,"BSTAR":0.00045784559,"MEAN_MOTION_DOT":0.00012084,"MEAN_MOTION_DDOT":0}]
